start=new Date('2022-10-15T00:00:00.000Z').valueOf();
sats=[{"CENTER_NAME":"EARTH","RCS_SIZE":"MEDIUM","TIME_SYSTEM":"UTC","BSTAR":"0.00005407300000","ECCENTRICITY":"0.00016580","APOAPSIS":"540.917","RA_OF_ASC_NODE":"134.6981","GP_ID":"215144634","SITE":"AFETR","OBJECT_TYPE":"PAYLOAD","REF_FRAME":"TEME","PERIAPSIS":"538.623","TLE_LINE1":"1 51744U 22016AG  22287.68486540  .00000572  00000-0  54073-4 0  9991","LAUNCH_DATE":"2022-02-21","MEAN_ELEMENT_THEORY":"SGP4","TLE_LINE2":"2 51744  53.2186 134.6981 0001658  50.2313 309.8825 15.08832074 36062","REV_AT_EPOCH":"3606","OBJECT_NAME":"STARLINK-3452","COUNTRY_CODE":"US","EPHEMERIS_TYPE":"0","EPOCH":"2022-10-14T16:26:12.370560","MEAN_MOTION_DOT":"0.00000572","INCLINATION":"53.2186","ARG_OF_PERICENTER":"50.2313","FILE":"3612869","MEAN_MOTION":"15.08832074","NORAD_CAT_ID":"51744","CLASSIFICATION_TYPE":"U","OBJECT_ID":"2022-016AG","MEAN_ANOMALY":"309.8825","MEAN_MOTION_DDOT":"0.0000000000000","ELEMENT_SET_NO":"999","SEMIMAJOR_AXIS":"6917.905","DECAY_DATE":null,"PERIOD":"95.438"},{"DECAY_DATE":null,"PERIOD":"95.437","MEAN_MOTION_DDOT":"0.0000000000000","ELEMENT_SET_NO":"999","SEMIMAJOR_AXIS":"6917.876","MEAN_ANOMALY":"309.9456","OBJECT_ID":"2022-016AH","CLASSIFICATION_TYPE":"U","MEAN_MOTION":"15.08841428","NORAD_CAT_ID":"51745","MEAN_MOTION_DOT":"0.00002107","ARG_OF_PERICENTER":"50.1711","INCLINATION":"53.2171","FILE":"3612869","COUNTRY_CODE":"US","EPOCH":"2022-10-14T16:46:01.176672","EPHEMERIS_TYPE":"0","TLE_LINE2":"2 51745  53.2171 134.6382 0001989  50.1711 309.9456 15.08841428 36064","REV_AT_EPOCH":"3606","OBJECT_NAME":"STARLINK-3449","TLE_LINE1":"1 51745U 22016AH  22287.69862473  .00002107  00000-0  15041-3 0  9993","LAUNCH_DATE":"2022-02-21","MEAN_ELEMENT_THEORY":"SGP4","REF_FRAME":"TEME","PERIAPSIS":"538.365","APOAPSIS":"541.117","RA_OF_ASC_NODE":"134.6382","GP_ID":"215144885","SITE":"AFETR","OBJECT_TYPE":"PAYLOAD","ECCENTRICITY":"0.00019890","BSTAR":"0.00015041000000","CENTER_NAME":"EARTH","RCS_SIZE":"LARGE","TIME_SYSTEM":"UTC"},{"TLE_LINE1":"1 51746U 22016AJ  22287.84674173  .00000347  00000-0  39902-4 0  9996","LAUNCH_DATE":"2022-02-21","MEAN_ELEMENT_THEORY":"SGP4","REF_FRAME":"TEME","PERIAPSIS":"538.524","APOAPSIS":"540.926","RA_OF_ASC_NODE":"123.9707","GP_ID":"215145636","SITE":"AFETR","OBJECT_TYPE":"PAYLOAD","ECCENTRICITY":"0.00017360","BSTAR":"0.00003990200000","CENTER_NAME":"EARTH","RCS_SIZE":"LARGE","TIME_SYSTEM":"UTC","DECAY_DATE":null,"PERIOD":"95.437","MEAN_MOTION_DDOT":"0.0000000000000","ELEMENT_SET_NO":"999","SEMIMAJOR_AXIS":"6917.860","MEAN_ANOMALY":"305.2134","OBJECT_ID":"2022-016AJ","CLASSIFICATION_TYPE":"U","MEAN_MOTION":"15.08846661","NORAD_CAT_ID":"51746","MEAN_MOTION_DOT":"0.00000347","INCLINATION":"53.2174","ARG_OF_PERICENTER":"54.9021","FILE":"3612869","COUNTRY_CODE":"US","EPHEMERIS_TYPE":"0","EPOCH":"2022-10-14T20:19:18.485472","TLE_LINE2":"2 51746  53.2174 123.9707 0001736  54.9021 305.2134 15.08846661 36220","REV_AT_EPOCH":"3622","OBJECT_NAME":"STARLINK-3502"},{"MEAN_ELEMENT_THEORY":"SGP4","LAUNCH_DATE":"2022-02-21","TLE_LINE1":"1 51747U 22016AK  22287.68757050 -.00000675  00000-0 -24326-4 0  9995","PERIAPSIS":"538.385","REF_FRAME":"TEME","ECCENTRICITY":"0.00019560","OBJECT_TYPE":"PAYLOAD","SITE":"AFETR","RA_OF_ASC_NODE":"134.6943","GP_ID":"215144384","APOAPSIS":"541.091","TIME_SYSTEM":"UTC","RCS_SIZE":"LARGE","CENTER_NAME":"EARTH","BSTAR":"-0.00002432600000","SEMIMAJOR_AXIS":"6917.873","MEAN_MOTION_DDOT":"0.0000000000000","ELEMENT_SET_NO":"999","PERIOD":"95.437","DECAY_DATE":null,"CLASSIFICATION_TYPE":"U","MEAN_ANOMALY":"300.6213","OBJECT_ID":"2022-016AK","FILE":"3612869","ARG_OF_PERICENTER":"59.4972","INCLINATION":"53.2153","MEAN_MOTION_DOT":"-0.00000675","NORAD_CAT_ID":"51747","MEAN_MOTION":"15.08842411","REV_AT_EPOCH":"3606","OBJECT_NAME":"STARLINK-3446","TLE_LINE2":"2 51747  53.2153 134.6943 0001956  59.4972 300.6213 15.08842411 36066","EPOCH":"2022-10-14T16:30:06.091200","EPHEMERIS_TYPE":"0","COUNTRY_CODE":"US"},{"PERIAPSIS":"538.341","REF_FRAME":"TEME","MEAN_ELEMENT_THEORY":"SGP4","LAUNCH_DATE":"2022-02-21","TLE_LINE1":"1 51748U 22016AL  22287.83937528  .00000090  00000-0  23772-4 0  9996","TIME_SYSTEM":"UTC","RCS_SIZE":"LARGE","CENTER_NAME":"EARTH","BSTAR":"0.00002377200000","ECCENTRICITY":"0.00020320","OBJECT_TYPE":"PAYLOAD","SITE":"AFETR","GP_ID":"215144134","RA_OF_ASC_NODE":"124.0116","APOAPSIS":"541.152","CLASSIFICATION_TYPE":"U","MEAN_ANOMALY":"308.6937","OBJECT_ID":"2022-016AL","SEMIMAJOR_AXIS":"6917.881","MEAN_MOTION_DDOT":"0.0000000000000","ELEMENT_SET_NO":"999","PERIOD":"95.438","DECAY_DATE":null,"OBJECT_NAME":"STARLINK-3501","REV_AT_EPOCH":"3622","TLE_LINE2":"2 51748  53.2153 124.0116 0002032  51.4237 308.6937 15.08839729 36221","EPOCH":"2022-10-14T20:08:42.024192","EPHEMERIS_TYPE":"0","COUNTRY_CODE":"US","FILE":"3612869","INCLINATION":"53.2153","ARG_OF_PERICENTER":"51.4237","MEAN_MOTION_DOT":"0.00000090","NORAD_CAT_ID":"51748","MEAN_MOTION":"15.08839729"},{"ECCENTRICITY":"0.00015220","OBJECT_TYPE":"PAYLOAD","SITE":"AFETR","GP_ID":"215145386","RA_OF_ASC_NODE":"133.9638","APOAPSIS":"540.794","TIME_SYSTEM":"UTC","RCS_SIZE":"LARGE","CENTER_NAME":"EARTH","BSTAR":"-0.00004769900000","MEAN_ELEMENT_THEORY":"SGP4","LAUNCH_DATE":"2022-02-21","TLE_LINE1":"1 51749U 22016AM  22287.85044955 -.00001047  00000-0 -47699-4 0  9991","PERIAPSIS":"538.689","REF_FRAME":"TEME","FILE":"3612869","INCLINATION":"53.2182","ARG_OF_PERICENTER":"45.3241","MEAN_MOTION_DOT":"-0.00001047","NORAD_CAT_ID":"51749","MEAN_MOTION":"15.08841281","REV_AT_EPOCH":"3608","OBJECT_NAME":"STARLINK-3451","TLE_LINE2":"2 51749  53.2182 133.9638 0001522  45.3241 314.7874 15.08841281 36080","EPHEMERIS_TYPE":"0","EPOCH":"2022-10-14T20:24:38.841120","COUNTRY_CODE":"US","SEMIMAJOR_AXIS":"6917.876","MEAN_MOTION_DDOT":"0.0000000000000","ELEMENT_SET_NO":"999","PERIOD":"95.437","DECAY_DATE":null,"CLASSIFICATION_TYPE":"U","OBJECT_ID":"2022-016AM","MEAN_ANOMALY":"314.7874"},{"LAUNCH_DATE":"2022-02-21","TLE_LINE1":"1 51750U 22016AN  22287.63329735  .00003944  00000-0  26568-3 0  9998","MEAN_ELEMENT_THEORY":"SGP4","REF_FRAME":"TEME","PERIAPSIS":"538.129","RA_OF_ASC_NODE":"124.9363","GP_ID":"215145136","APOAPSIS":"541.279","OBJECT_TYPE":"PAYLOAD","SITE":"AFETR","ECCENTRICITY":"0.00022770","BSTAR":"0.00026568000000","CENTER_NAME":"EARTH","TIME_SYSTEM":"UTC","RCS_SIZE":"LARGE","PERIOD":"95.437","DECAY_DATE":null,"MEAN_MOTION_DDOT":"0.0000000000000","ELEMENT_SET_NO":"999","SEMIMAJOR_AXIS":"6917.839","OBJECT_ID":"2022-016AN","MEAN_ANOMALY":"316.6171","CLASSIFICATION_TYPE":"U","MEAN_MOTION":"15.08853527","NORAD_CAT_ID":"51750","MEAN_MOTION_DOT":"0.00003944","FILE":"3612869","INCLINATION":"53.2154","ARG_OF_PERICENTER":"43.5000","EPHEMERIS_TYPE":"0","EPOCH":"2022-10-14T15:11:56.891040","COUNTRY_CODE":"US","TLE_LINE2":"2 51750  53.2154 124.9363 0002277  43.5000 316.6171 15.08853527 36196","REV_AT_EPOCH":"3619","OBJECT_NAME":"STARLINK-3505"},{"DECAY_DATE":null,"PERIOD":"95.438","SEMIMAJOR_AXIS":"6917.901","ELEMENT_SET_NO":"999","MEAN_MOTION_DDOT":"0.0000000000000","MEAN_ANOMALY":"306.6836","OBJECT_ID":"2022-016AP","CLASSIFICATION_TYPE":"U","NORAD_CAT_ID":"51751","MEAN_MOTION":"15.08833352","INCLINATION":"53.2164","ARG_OF_PERICENTER":"53.4301","FILE":"3612869","MEAN_MOTION_DOT":"0.00000416","COUNTRY_CODE":"US","EPOCH":"2022-10-14T20:13:59.960640","EPHEMERIS_TYPE":"0","REV_AT_EPOCH":"3622","OBJECT_NAME":"STARLINK-3506","TLE_LINE2":"2 51751  53.2164 123.9961 0001583  53.4301 306.6836 15.08833352 36229","MEAN_ELEMENT_THEORY":"SGP4","TLE_LINE1":"1 51751U 22016AP  22287.84305510  .00000416  00000-0  44211-4 0  9994","LAUNCH_DATE":"2022-02-21","PERIAPSIS":"538.671","REF_FRAME":"TEME","SITE":"AFETR","OBJECT_TYPE":"PAYLOAD","APOAPSIS":"540.861","GP_ID":"215143884","RA_OF_ASC_NODE":"123.9961","ECCENTRICITY":"0.00015830","BSTAR":"0.00004421100000","RCS_SIZE":"LARGE","TIME_SYSTEM":"UTC","CENTER_NAME":"EARTH"},{"NORAD_CAT_ID":"51752","MEAN_MOTION":"15.08845762","ARG_OF_PERICENTER":"48.1318","INCLINATION":"53.2166","FILE":"3612869","MEAN_MOTION_DOT":"0.00001151","COUNTRY_CODE":"US","EPOCH":"2022-10-14T15:06:38.889792","EPHEMERIS_TYPE":"0","REV_AT_EPOCH":"3619","OBJECT_NAME":"STARLINK-3511","TLE_LINE2":"2 51752  53.2166 124.9559 0002061  48.1318 311.9850 15.08845762 36196","DECAY_DATE":null,"PERIOD":"95.437","SEMIMAJOR_AXIS":"6917.863","MEAN_MOTION_DDOT":"0.0000000000000","ELEMENT_SET_NO":"999","MEAN_ANOMALY":"311.9850","OBJECT_ID":"2022-016AQ","CLASSIFICATION_TYPE":"U","SITE":"AFETR","OBJECT_TYPE":"PAYLOAD","APOAPSIS":"541.154","RA_OF_ASC_NODE":"124.9559","GP_ID":"215144635","ECCENTRICITY":"0.00020610","BSTAR":"0.00009037000000","RCS_SIZE":"MEDIUM","TIME_SYSTEM":"UTC","CENTER_NAME":"EARTH","MEAN_ELEMENT_THEORY":"SGP4","TLE_LINE1":"1 51752U 22016AQ  22287.62961678  .00001151  00000-0  90370-4 0  9998","LAUNCH_DATE":"2022-02-21","PERIAPSIS":"538.302","REF_FRAME":"TEME"},{"OBJECT_TYPE":"PAYLOAD","SITE":"AFETR","RA_OF_ASC_NODE":"124.0289","GP_ID":"215144886","APOAPSIS":"540.942","ECCENTRICITY":"0.00017650","BSTAR":"0.00017188000000","TIME_SYSTEM":"UTC","RCS_SIZE":"LARGE","CENTER_NAME":"EARTH","MEAN_ELEMENT_THEORY":"SGP4","LAUNCH_DATE":"2022-02-21","TLE_LINE1":"1 51753U 22016AR  22287.83569385  .00002449  00000-0  17188-3 0  9997","PERIAPSIS":"538.500","REF_FRAME":"TEME","NORAD_CAT_ID":"51753","MEAN_MOTION":"15.08847980","FILE":"3612869","INCLINATION":"53.2169","ARG_OF_PERICENTER":"42.5152","MEAN_MOTION_DOT":"0.00002449","EPOCH":"2022-10-14T20:03:23.948640","EPHEMERIS_TYPE":"0","COUNTRY_CODE":"US","REV_AT_EPOCH":"3622","OBJECT_NAME":"STARLINK-3507","TLE_LINE2":"2 51753  53.2169 124.0289 0001765  42.5152 317.5977 15.08847980 36225","PERIOD":"95.437","DECAY_DATE":null,"SEMIMAJOR_AXIS":"6917.856","MEAN_MOTION_DDOT":"0.0000000000000","ELEMENT_SET_NO":"999","OBJECT_ID":"2022-016AR","MEAN_ANOMALY":"317.5977","CLASSIFICATION_TYPE":"U"}];
